[{"OBJECT_NAME":"TIANMU-1 10","OBJECT_ID":"2023-101D","EPOCH":"2026-04-01T11:19:19.166304","MEAN_MOTION":15.29396697,"ECCENTRICITY":0.0006323,"INCLINATION":97.2704,"RA_OF_ASC_NODE":144.1161,"ARG_OF_PERICENTER":74.1632,"MEAN_ANOMALY":286.0305,"EPHEMERIS_TYPE":0,"CLASSIFICATION_TYPE":"U","NORAD_CAT_ID":57402,"ELEMENT_SET_NO":999,"REV_AT_EPOCH":14991,"BSTAR":0.00025892,"MEAN_MOTION_DOT":7.311e-5,"MEAN_MOTION_DDOT":0},{"OBJECT_NAME":"FENGYUN 3F","OBJECT_ID":"2023-111A","EPOCH":"2026-04-01T12:27:22.208256","MEAN_MOTION":14.19924724,"ECCENTRICITY":8.39e-5,"INCLINATION":98.6883,"RA_OF_ASC_NODE":162.9408,"ARG_OF_PERICENTER":82.8428,"MEAN_ANOMALY":277.2844,"EPHEMERIS_TYPE":0,"CLASSIFICATION_TYPE":"U","NORAD_CAT_ID":57490,"ELEMENT_SET_NO":999,"REV_AT_EPOCH":13798,"BSTAR":5.7513e-5,"MEAN_MOTION_DOT":7.9e-7,"MEAN_MOTION_DDOT":0},{"OBJECT_NAME":"ARKTIKA-M 2","OBJECT_ID":"2023-198A","EPOCH":"2026-03-30T23:56:14.512416","MEAN_MOTION":2.00607099,"ECCENTRICITY":0.68829758,"INCLINATION":63.2169,"RA_OF_ASC_NODE":163.0455,"ARG_OF_PERICENTER":267.6817,"MEAN_ANOMALY":18.8399,"EPHEMERIS_TYPE":0,"CLASSIFICATION_TYPE":"U","NORAD_CAT_ID":58584,"ELEMENT_SET_NO":999,"REV_AT_EPOCH":1675,"BSTAR":0,"MEAN_MOTION_DOT":1.42e-6,"MEAN_MOTION_DDOT":0},{"OBJECT_NAME":"TIANMU-1 11","OBJECT_ID":"2023-205A","EPOCH":"2026-04-01T11:51:08.276256","MEAN_MOTION":15.2618525,"ECCENTRICITY":0.0007076,"INCLINATION":97.3512,"RA_OF_ASC_NODE":114.2759,"ARG_OF_PERICENTER":275.755,"MEAN_ANOMALY":84.2882,"EPHEMERIS_TYPE":0,"CLASSIFICATION_TYPE":"U","NORAD_CAT_ID":58645,"ELEMENT_SET_NO":999,"REV_AT_EPOCH":12582,"BSTAR":0.00023415,"MEAN_MOTION_DOT":5.986e-5,"MEAN_MOTION_DDOT":0},{"OBJECT_NAME":"TIANMU-1 12","OBJECT_ID":"2023-205B","EPOCH":"2026-04-01T12:39:19.355040","MEAN_MOTION":15.26121868,"ECCENTRICITY":0.0005451,"INCLINATION":97.3501,"RA_OF_ASC_NODE":114.0818,"ARG_OF_PERICENTER":253.1026,"MEAN_ANOMALY":106.9615,"EPHEMERIS_TYPE":0,"CLASSIFICATION_TYPE":"U","NORAD_CAT_ID":58646,"ELEMENT_SET_NO":999,"REV_AT_EPOCH":12581,"BSTAR":0.00024972,"MEAN_MOTION_DOT":6.375e-5,"MEAN_MOTION_DDOT":0},{"OBJECT_NAME":"TIANMU-1 13","OBJECT_ID":"2023-205C","EPOCH":"2026-04-01T11:48:18.218592","MEAN_MOTION":15.26171595,"ECCENTRICITY":0.0006096,"INCLINATION":97.3528,"RA_OF_ASC_NODE":114.296,"ARG_OF_PERICENTER":229.5875,"MEAN_ANOMALY":130.4832,"EPHEMERIS_TYPE":0,"CLASSIFICATION_TYPE":"U","NORAD_CAT_ID":58647,"ELEMENT_SET_NO":999,"REV_AT_EPOCH":12580,"BSTAR":0.0002415,"MEAN_MOTION_DOT":6.172e-5,"MEAN_MOTION_DDOT":0},{"OBJECT_NAME":"TIANMU-1 14","OBJECT_ID":"2023-205D","EPOCH":"2026-04-01T11:26:37.451904","MEAN_MOTION":15.26145655,"ECCENTRICITY":0.0006725,"INCLINATION":97.3464,"RA_OF_ASC_NODE":113.5294,"ARG_OF_PERICENTER":235.9938,"MEAN_ANOMALY":124.0662,"EPHEMERIS_TYPE":0,"CLASSIFICATION_TYPE":"U","NORAD_CAT_ID":58648,"ELEMENT_SET_NO":999,"REV_AT_EPOCH":12580,"BSTAR":0.00025257,"MEAN_MOTION_DOT":6.455e-5,"MEAN_MOTION_DDOT":0},{"OBJECT_NAME":"TIANMU-1 19","OBJECT_ID":"2023-208A","EPOCH":"2026-04-01T13:17:43.535904","MEAN_MOTION":15.30319948,"ECCENTRICITY":0.0004414,"INCLINATION":97.4412,"RA_OF_ASC_NODE":207.5757,"ARG_OF_PERICENTER":212.7143,"MEAN_ANOMALY":147.3825,"EPHEMERIS_TYPE":0,"CLASSIFICATION_TYPE":"U","NORAD_CAT_ID":58660,"ELEMENT_SET_NO":999,"REV_AT_EPOCH":12560,"BSTAR":0.00035069,"MEAN_MOTION_DOT":0.00010214,"MEAN_MOTION_DDOT":0},{"OBJECT_NAME":"TIANMU-1 20","OBJECT_ID":"2023-208B","EPOCH":"2026-04-01T14:03:44.034912","MEAN_MOTION":15.31507628,"ECCENTRICITY":0.0006305,"INCLINATION":97.4352,"RA_OF_ASC_NODE":208.1645,"ARG_OF_PERICENTER":227.462,"MEAN_ANOMALY":132.6089,"EPHEMERIS_TYPE":0,"CLASSIFICATION_TYPE":"U","NORAD_CAT_ID":58661,"ELEMENT_SET_NO":999,"REV_AT_EPOCH":12569,"BSTAR":0.00036382,"MEAN_MOTION_DOT":0.00011002,"MEAN_MOTION_DDOT":0},{"OBJECT_NAME":"TIANMU-1 21","OBJECT_ID":"2023-208C","EPOCH":"2026-04-01T13:17:32.889696","MEAN_MOTION":15.33600242,"ECCENTRICITY":0.0006386,"INCLINATION":97.4409,"RA_OF_ASC_NODE":210.4954,"ARG_OF_PERICENTER":221.6716,"MEAN_ANOMALY":138.4041,"EPHEMERIS_TYPE":0,"CLASSIFICATION_TYPE":"U","NORAD_CAT_ID":58662,"ELEMENT_SET_NO":999,"REV_AT_EPOCH":12581,"BSTAR":0.00040428,"MEAN_MOTION_DOT":0.00013068,"MEAN_MOTION_DDOT":0},{"OBJECT_NAME":"TIANMU-1 22","OBJECT_ID":"2023-208D","EPOCH":"2026-04-01T13:51:43.668864","MEAN_MOTION":15.29900325,"ECCENTRICITY":0.00026,"INCLINATION":97.4408,"RA_OF_ASC_NODE":207.595,"ARG_OF_PERICENTER":236.442,"MEAN_ANOMALY":123.6572,"EPHEMERIS_TYPE":0,"CLASSIFICATION_TYPE":"U","NORAD_CAT_ID":58663,"ELEMENT_SET_NO":999,"REV_AT_EPOCH":12561,"BSTAR":0.00032292,"MEAN_MOTION_DOT":9.275e-5,"MEAN_MOTION_DDOT":0},{"OBJECT_NAME":"TIANMU-1 15","OBJECT_ID":"2024-004A","EPOCH":"2026-04-01T12:57:31.991040","MEAN_MOTION":15.26166845,"ECCENTRICITY":0.0005685,"INCLINATION":97.4672,"RA_OF_ASC_NODE":277.7544,"ARG_OF_PERICENTER":255.1169,"MEAN_ANOMALY":104.944,"EPHEMERIS_TYPE":0,"CLASSIFICATION_TYPE":"U","NORAD_CAT_ID":58700,"ELEMENT_SET_NO":999,"REV_AT_EPOCH":12408,"BSTAR":0.00028669,"MEAN_MOTION_DOT":7.339e-5,"MEAN_MOTION_DDOT":0},{"OBJECT_NAME":"TIANMU-1 16","OBJECT_ID":"2024-004B","EPOCH":"2026-04-01T12:32:59.365248","MEAN_MOTION":15.26203569,"ECCENTRICITY":0.0004096,"INCLINATION":97.4616,"RA_OF_ASC_NODE":277.0442,"ARG_OF_PERICENTER":257.871,"MEAN_ANOMALY":102.2069,"EPHEMERIS_TYPE":0,"CLASSIFICATION_TYPE":"U","NORAD_CAT_ID":58701,"ELEMENT_SET_NO":999,"REV_AT_EPOCH":12408,"BSTAR":0.00028385,"MEAN_MOTION_DOT":7.272e-5,"MEAN_MOTION_DDOT":0},{"OBJECT_NAME":"TIANMU-1 17","OBJECT_ID":"2024-004C","EPOCH":"2026-04-01T12:06:47.740608","MEAN_MOTION":15.26237853,"ECCENTRICITY":0.0003308,"INCLINATION":97.4645,"RA_OF_ASC_NODE":277.4903,"ARG_OF_PERICENTER":258.3896,"MEAN_ANOMALY":101.6971,"EPHEMERIS_TYPE":0,"CLASSIFICATION_TYPE":"U","NORAD_CAT_ID":58702,"ELEMENT_SET_NO":999,"REV_AT_EPOCH":12407,"BSTAR":0.00026915,"MEAN_MOTION_DOT":6.898e-5,"MEAN_MOTION_DDOT":0},{"OBJECT_NAME":"TIANMU-1 18","OBJECT_ID":"2024-004D","EPOCH":"2026-04-01T13:21:04.840128","MEAN_MOTION":15.26176466,"ECCENTRICITY":0.0002696,"INCLINATION":97.4663,"RA_OF_ASC_NODE":277.7568,"ARG_OF_PERICENTER":255.3582,"MEAN_ANOMALY":104.7358,"EPHEMERIS_TYPE":0,"CLASSIFICATION_TYPE":"U","NORAD_CAT_ID":58703,"ELEMENT_SET_NO":999,"REV_AT_EPOCH":12408,"BSTAR":0.00025627,"MEAN_MOTION_DOT":6.551e-5,"MEAN_MOTION_DDOT":0},{"OBJECT_NAME":"INSAT-3DS","OBJECT_ID":"2024-033A","EPOCH":"2026-04-01T03:45:38.767680","MEAN_MOTION":1.0027177,"ECCENTRICITY":0.0002106,"INCLINATION":0.0292,"RA_OF_ASC_NODE":109.8523,"ARG_OF_PERICENTER":263.3868,"MEAN_ANOMALY":314.7645,"EPHEMERIS_TYPE":0,"CLASSIFICATION_TYPE":"U","NORAD_CAT_ID":58990,"ELEMENT_SET_NO":999,"REV_AT_EPOCH":4629,"BSTAR":0,"MEAN_MOTION_DOT":-1.67e-6,"MEAN_MOTION_DDOT":0},{"OBJECT_NAME":"METEOR-M2 4","OBJECT_ID":"2024-039A","EPOCH":"2026-04-01T12:15:02.535264","MEAN_MOTION":14.22420771,"ECCENTRICITY":0.0007798,"INCLINATION":98.6942,"RA_OF_ASC_NODE":51.8026,"ARG_OF_PERICENTER":38.8344,"MEAN_ANOMALY":321.3393,"EPHEMERIS_TYPE":0,"CLASSIFICATION_TYPE":"U","NORAD_CAT_ID":59051,"ELEMENT_SET_NO":999,"REV_AT_EPOCH":10836,"BSTAR":3.4163e-5,"MEAN_MOTION_DOT":3.2e-7,"MEAN_MOTION_DDOT":0}]
