TIANMU-1 10             
1 57402U 23101D   26091.47174961  .00007311  00000+0  25892-3 0  9992
2 57402  97.2704 144.1161 0006323  74.1632 286.0305 15.29396697149919
FENGYUN 3F              
1 57490U 23111A   26091.51900704  .00000079  00000+0  57513-4 0  9997
2 57490  98.6883 162.9408 0000839  82.8428 277.2844 14.19924724137986
ARKTIKA-M 2             
1 58584U 23198A   26089.99739019  .00000142  00000+0  00000+0 0  9990
2 58584  63.2169 163.0455 6882975 267.6817  18.8399  2.00607099 16755
TIANMU-1 11             
1 58645U 23205A   26091.49384579  .00005986  00000+0  23415-3 0  9992
2 58645  97.3512 114.2759 0007076 275.7550  84.2882 15.26185250125822
TIANMU-1 12             
1 58646U 23205B   26091.52730735  .00006375  00000+0  24972-3 0  9998
2 58646  97.3501 114.0818 0005451 253.1026 106.9615 15.26121868125818
TIANMU-1 13             
1 58647U 23205C   26091.49187753  .00006172  00000+0  24150-3 0  9994
2 58647  97.3528 114.2960 0006096 229.5875 130.4832 15.26171595125807
TIANMU-1 14             
1 58648U 23205D   26091.47682236  .00006455  00000+0  25257-3 0  9992
2 58648  97.3464 113.5294 0006725 235.9938 124.0662 15.26145655125807
TIANMU-1 19             
1 58660U 23208A   26091.55397611  .00010214  00000+0  35069-3 0  9998
2 58660  97.4412 207.5757 0004414 212.7143 147.3825 15.30319948125607
TIANMU-1 20             
1 58661U 23208B   26091.58592633  .00011002  00000+0  36382-3 0  9998
2 58661  97.4352 208.1645 0006305 227.4620 132.6089 15.31507628125691
TIANMU-1 21             
1 58662U 23208C   26091.55385289  .00013068  00000+0  40428-3 0  9993
2 58662  97.4409 210.4954 0006386 221.6716 138.4041 15.33600242125819
TIANMU-1 22             
1 58663U 23208D   26091.57758876  .00009275  00000+0  32292-3 0  9997
2 58663  97.4408 207.5950 0002600 236.4420 123.6572 15.29900325125616
TIANMU-1 15             
1 58700U 24004A   26091.53995360  .00007339  00000+0  28669-3 0  9993
2 58700  97.4672 277.7544 0005685 255.1169 104.9440 15.26166845124087
TIANMU-1 16             
1 58701U 24004B   26091.52290932  .00007272  00000+0  28385-3 0  9997
2 58701  97.4616 277.0442 0004096 257.8710 102.2069 15.26203569124085
TIANMU-1 17             
1 58702U 24004C   26091.50471922  .00006898  00000+0  26915-3 0  9996
2 58702  97.4645 277.4903 0003308 258.3896 101.6971 15.26237853124077
TIANMU-1 18             
1 58703U 24004D   26091.55630602  .00006551  00000+0  25627-3 0  9999
2 58703  97.4663 277.7568 0002696 255.3582 104.7358 15.26176466124082
INSAT-3DS               
1 58990U 24033A   26091.15669870 -.00000167  00000+0  00000+0 0  9996
2 58990   0.0292 109.8523 0002106 263.3868 314.7645  1.00271770 46295
METEOR-M2 4             
1 59051U 24039A   26091.51044601  .00000032  00000+0  34163-4 0  9992
2 59051  98.6942  51.8026 0007798  38.8344 321.3393 14.22420771108365
